              M50 Cartesian                         J2K Cartesian  
    -----------------------------------       --------------------------------
     X    =       12551028.36                 X    =         3763617.22
     Y    =       12093258.97  feet           Y    =         3728459.27  meter
     Z    =       13801149.46                 Z    =         4225023.22
     XDOT =     -20711.066221                 XDOT =       -6356.345983
     YDOT =       7693.287575  feet/sec       YDOT =        2274.077334  meter/sec
     ZDOT =      12063.270616                 ZDOT =        3646.113015
 
              TDR Cartesian                         TDR Cartesian  
    -----------------------------------       --------------------------------
     X    =       16326000.65                 X    =         4976165.00
     Y    =        5919477.93  feet           Y    =         1804256.87  meter
     Z    =       13880505.59                 Z    =         4230778.10
     XDOT =     -15372.080352                 XDOT =       -4685.410091
     YDOT =      14352.843385  feet/sec       YDOT =        4374.746664  meter/sec
     ZDOT =      11929.103977                 ZDOT =        3635.990892
  
  
    The mean element set is posted at the UTC for which position is
    just north of the next ascending node relative to the above
    vector time
 
 
    TWO LINE MEAN ELEMENT SET
  
    ISS
    1 25544U 98067A   16107.55488310  .00016717  00000-0  10270-3 0  9017
    2 25544  51.6446   5.4500 0001731  35.1503 324.9764 15.54234364 35393
  
  
    Satellite: ISS
    Catalog Number: 25544
    Epoch time:      16107.55488310   =   yrday.fracday
    Element set:     901
    Inclination:       51.6446  deg
    RA of node:         5.4500  deg
    Eccentricity:     .0001731     
    Arg of perigee:    35.1503  deg
    Mean anomaly:     324.9764  deg
    Mean motion:   15.54234364  rev/day
    Decay rate:    1.67170E-04  rev/day^2
    Epoch rev:            3539
    Checksum:              284
 
 
    Coasting Arc #3 (Orbit 3553)
    ---------------------------------------
 
    Vector Time (GMT): 2016/108/12:00:00.000
    Vector Time (MET): N/A
    Weight (LBS)     : 945238.6
 
              M50 Cartesian                         M50 Keplerian  
    -----------------------------------       --------------------------------
     X    =       -2152579.08                 A    =         6778077.45  meter
     Y    =       -4000109.27  meter          E    =           .0014395
     Z    =       -5043830.48                 I    =           51.63450
     XDOT =       7262.310364                 Wp   =           70.96053
     YDOT =      -1491.986633  meter/sec      RA   =             .19530  deg
     ZDOT =      -1916.009383                 TA   =          180.42915
                                              MA   =          180.43039
                                              Ha   =            221.177  n.mi
                                              Hp   =            213.990
 
              M50 Cartesian                         J2K Cartesian  
    -----------------------------------       --------------------------------
     X    =       -7062267.31                 X    =        -2083188.01
     Y    =      -13123718.06  feet           Y    =        -4023793.33  meter
     Z    =      -16548000.27                 Z    =        -5054118.29
     XDOT =      23826.477572                 XDOT =        7287.761567
     YDOT =      -4894.969269  feet/sec       YDOT =       -1410.632523  meter/sec
     ZDOT =      -6286.120024                 ZDOT =       -1880.668796
 
              TDR Cartesian                         TDR Cartesian  
    -----------------------------------       --------------------------------
     X    =      -11881916.55                 X    =        -3621608.16
     Y    =       -8914749.47  feet           Y    =        -2717215.64  meter
     Z    =      -16591901.91                 Z    =        -5057211.70
     XDOT =      18860.843422                 XDOT =        5748.785075
     YDOT =     -13724.522296  feet/sec       YDOT =       -4183.234396  meter/sec
     ZDOT =      -6132.283634                 ZDOT =       -1869.120052
  
  
    The mean element set is posted at the UTC for which position is
    just north of the next ascending node relative to the above
    vector time
 
 
    TWO LINE MEAN ELEMENT SET
  
    ISS
    1 25544U 98067A   16108.51933851  .00016717  00000-0  10270-3 0  9020
    2 25544  51.6451    .6413 0001729  34.2521 325.8743 15.54278349 35541
  
  
    Satellite: ISS
    Catalog Number: 25544
    Epoch time:      16108.51933851   =   yrday.fracday
    Element set:     902
    Inclination:       51.6451  deg
    RA of node:          .6413  deg
    Eccentricity:     .0001729     
    Arg of perigee:    34.2521  deg
    Mean anomaly:     325.8743  deg
    Mean motion:   15.54278349  rev/day
    Decay rate:    1.67170E-04  rev/day^2
    Epoch rev:            3554
    Checksum:              295
 
 
    Coasting Arc #4 (Orbit 3569)
    ---------------------------------------
 
    Vector Time (GMT): 2016/109/12:00:00.000
    Vector Time (MET): N/A
    Weight (LBS)     : 945238.6
 
              M50 Cartesian                         M50 Keplerian  
    -----------------------------------       --------------------------------
     X    =         298130.81                 A    =         6776849.49  meter
     Y    =        4197807.59  meter          E    =           .0003693
     Z    =        5308915.94                 I    =           51.59847
     XDOT =      -7647.781480                 Wp   =           65.02242
     YDOT =        605.315471  meter/sec      RA   =          355.19273  deg
     ZDOT =        -47.602169                 TA   =           25.44031
                                              MA   =           25.42213
                                              Ha   =            221.132  n.mi
                                              Hp   =            214.037
 
              M50 Cartesian                         J2K Cartesian  
    -----------------------------------       --------------------------------
     X    =         978119.44                 X    =          225379.10
     Y    =       13772334.62  feet           Y    =         4200735.24  meter
     Z    =       17417703.22                 Z    =         5310187.07
     XDOT =     -25091.146589                 XDOT =       -7653.750636
     YDOT =       1985.943146  feet/sec       YDOT =         519.759509  meter/sec
     ZDOT =       -156.175095                 ZDOT =         -84.767995
 
              TDR Cartesian                         TDR Cartesian  
    -----------------------------------       --------------------------------
     X    =        6855046.03                 X    =         2089418.03
     Y    =       11978267.90  feet           Y    =         3650976.05  meter
     Z    =       17422392.09                 Z    =         5310345.11
     XDOT =     -20765.145898                 XDOT =       -6329.216470
     YDOT =      12353.268573  feet/sec       YDOT =        3765.276261  meter/sec
     ZDOT =       -317.752321                 ZDOT =         -96.850907
  
  
    The mean element set is posted at the UTC for which position is
    just north of the next ascending node relative to the above
    vector time
 
 
    TWO LINE MEAN ELEMENT SET
  
    ISS
    1 25544U 98067A   16109.54808055  .00016717  00000-0  10270-3 0  9032
    2 25544  51.6451 355.5118 0001640  35.6245 324.5017 15.54299015 35706
  
  
    Satellite: ISS
    Catalog Number: 25544
    Epoch time:      16109.54808055   =   yrday.fracday
    Element set:     903
    Inclination:       51.6451  deg
    RA of node:       355.5118  deg
    Eccentricity:     .0001640     
    Arg of perigee:    35.6245  deg
    Mean anomaly:     324.5017  deg
    Mean motion:   15.54299015  rev/day
    Decay rate:    1.67170E-04  rev/day^2
    Epoch rev:            3570
    Checksum:              292
 
 
    Coasting Arc #5 (Orbit 3584)
    ---------------------------------------
 
    Vector Time (GMT): 2016/110/12:00:00.000
    Vector Time (MET): N/A
    Weight (LBS)     : 945238.6
 
              M50 Cartesian                         M50 Keplerian  
    -----------------------------------       --------------------------------
     X    =        1558243.51                 A    =         6778247.54  meter
     Y    =       -4304305.22  meter          E    =           .0013369
     Z    =       -5010979.45                 I    =           51.57099
     XDOT =       7382.960953                 Wp   =           98.00817
     YDOT =        339.291600  meter/sec      RA   =          350.18781  deg
     ZDOT =       2007.179452                 TA   =          191.52224
                                              MA   =          191.55287
                                              Ha   =            221.141  n.mi
                                              Hp   =            214.055
 
              M50 Cartesian                         J2K Cartesian  
    -----------------------------------       --------------------------------
     X    =        5112347.46                 X    =         1630600.94
     Y    =      -14121736.27  feet           Y    =        -4286475.82  meter
     Z    =      -16440221.29                 Z    =        -5003233.64
     XDOT =      24222.312837                 XDOT =        7368.868074
     YDOT =       1113.161416  feet/sec       YDOT =         421.774182  meter/sec
     ZDOT =       6585.234421                 ZDOT =        2043.010136
 
